start=new Date('2022-03-27T00:00:00.000Z').valueOf();
sats=[{"SEMIMAJOR_AXIS":"6925.346","EPHEMERIS_TYPE":"0","FILE":"3375650","BSTAR":"-0.00001769200000","MEAN_ANOMALY":"292.1260","APOAPSIS":"548.217","PERIAPSIS":"546.204","OBJECT_TYPE":"PAYLOAD","OBJECT_ID":"2021-021AT","LAUNCH_DATE":"2021-03-14","TLE_LINE2":"2 47901  53.0549 263.3123 0001453  67.9883 292.1260 15.06400948 58702","COUNTRY_CODE":"US","TIME_SYSTEM":"UTC","CLASSIFICATION_TYPE":"U","ELEMENT_SET_NO":"999","ECCENTRICITY":"0.00014530","MEAN_ELEMENT_THEORY":"SGP4","MEAN_MOTION":"15.06400948","MEAN_MOTION_DDOT":"0.0000000000000","OBJECT_NAME":"STARLINK-2361","GP_ID":"199780552","EPOCH":"2022-03-26T20:08:18.786912","INCLINATION":"53.0549","SITE":"AFETR","REF_FRAME":"TEME","CENTER_NAME":"EARTH","RCS_SIZE":"LARGE","TLE_LINE1":"1 47901U 21021AT  22085.83910633 -.00000545  00000-0 -17692-4 0  9992","ARG_OF_PERICENTER":"67.9883","REV_AT_EPOCH":"5870","DECAY_DATE":null,"PERIOD":"95.592","MEAN_MOTION_DOT":"-0.00000545","RA_OF_ASC_NODE":"263.3123","NORAD_CAT_ID":"47901"},{"RCS_SIZE":"LARGE","CENTER_NAME":"EARTH","ARG_OF_PERICENTER":"61.1219","TLE_LINE1":"1 47902U 21021AU  22085.83083357  .00000579  00000-0  57786-4 0  9990","PERIOD":"95.592","RA_OF_ASC_NODE":"283.3427","MEAN_MOTION_DOT":"0.00000579","DECAY_DATE":null,"REV_AT_EPOCH":"5853","NORAD_CAT_ID":"47902","MEAN_MOTION_DDOT":"0.0000000000000","EPOCH":"2022-03-26T19:56:24.020448","GP_ID":"199779300","OBJECT_NAME":"STARLINK-2362","SITE":"AFETR","REF_FRAME":"TEME","INCLINATION":"53.0556","MEAN_MOTION":"15.06398795","ELEMENT_SET_NO":"999","ECCENTRICITY":"0.00014470","MEAN_ELEMENT_THEORY":"SGP4","COUNTRY_CODE":"US","TIME_SYSTEM":"UTC","CLASSIFICATION_TYPE":"U","TLE_LINE2":"2 47902  53.0556 283.3427 0001447  61.1219 298.9915 15.06398795 58530","OBJECT_ID":"2021-021AU","LAUNCH_DATE":"2021-03-14","MEAN_ANOMALY":"298.9915","OBJECT_TYPE":"PAYLOAD","PERIAPSIS":"546.215","APOAPSIS":"548.219","EPHEMERIS_TYPE":"0","SEMIMAJOR_AXIS":"6925.352","BSTAR":"0.00005778600000","FILE":"3375650"},{"OBJECT_ID":"2021-021AV","LAUNCH_DATE":"2021-03-14","TLE_LINE2":"2 47903  53.0542 263.2476 0001936  56.1091 304.0082 15.06401224 59056","COUNTRY_CODE":"US","TIME_SYSTEM":"UTC","CLASSIFICATION_TYPE":"U","SEMIMAJOR_AXIS":"6925.345","EPHEMERIS_TYPE":"0","FILE":"3375650","BSTAR":"0.00000440540000","MEAN_ANOMALY":"304.0082","PERIAPSIS":"545.869","APOAPSIS":"548.551","OBJECT_TYPE":"PAYLOAD","MEAN_MOTION_DDOT":"0.0000000000000","OBJECT_NAME":"STARLINK-2363","EPOCH":"2022-03-26T20:30:54.148032","GP_ID":"199779050","INCLINATION":"53.0542","REF_FRAME":"TEME","SITE":"AFETR","CENTER_NAME":"EARTH","RCS_SIZE":"LARGE","TLE_LINE1":"1 47903U 21021AV  22085.85479338 -.00000216  00000-0  44054-5 0  9995","ARG_OF_PERICENTER":"56.1091","DECAY_DATE":null,"REV_AT_EPOCH":"5905","PERIOD":"95.592","RA_OF_ASC_NODE":"263.2476","MEAN_MOTION_DOT":"-0.00000216","NORAD_CAT_ID":"47903","ELEMENT_SET_NO":"999","MEAN_ELEMENT_THEORY":"SGP4","ECCENTRICITY":"0.00019360","MEAN_MOTION":"15.06401224"},{"MEAN_ANOMALY":"288.4961","PERIAPSIS":"546.061","APOAPSIS":"548.335","OBJECT_TYPE":"PAYLOAD","SEMIMAJOR_AXIS":"6925.333","EPHEMERIS_TYPE":"0","BSTAR":"0.00013712000000","FILE":"3375650","COUNTRY_CODE":"US","TIME_SYSTEM":"UTC","CLASSIFICATION_TYPE":"U","OBJECT_ID":"2021-021AW","LAUNCH_DATE":"2021-03-14","TLE_LINE2":"2 47904  53.0542 263.5622 0001642  71.6207 288.4961 15.06405061 58680","MEAN_MOTION":"15.06405061","ELEMENT_SET_NO":"999","ECCENTRICITY":"0.00016420","MEAN_ELEMENT_THEORY":"SGP4","CENTER_NAME":"EARTH","RCS_SIZE":"LARGE","TLE_LINE1":"1 47904U 21021AW  22085.78475713  .00001762  00000-0  13712-3 0  9992","ARG_OF_PERICENTER":"71.6207","REV_AT_EPOCH":"5868","DECAY_DATE":null,"PERIOD":"95.592","MEAN_MOTION_DOT":"0.00001762","RA_OF_ASC_NODE":"263.5622","NORAD_CAT_ID":"47904","MEAN_MOTION_DDOT":"0.0000000000000","OBJECT_NAME":"STARLINK-2364","GP_ID":"199780302","EPOCH":"2022-03-26T18:50:03.016032","INCLINATION":"53.0542","SITE":"AFETR","REF_FRAME":"TEME"},{"OBJECT_ID":"2021-021AX","LAUNCH_DATE":"2021-03-14","TLE_LINE2":"2 47905  53.0537 263.2867 0001451  68.8186 291.2958 15.06400971 58824","CLASSIFICATION_TYPE":"U","TIME_SYSTEM":"UTC","COUNTRY_CODE":"US","BSTAR":"0.00010768000000","FILE":"3375650","SEMIMAJOR_AXIS":"6925.346","EPHEMERIS_TYPE":"0","APOAPSIS":"548.215","PERIAPSIS":"546.206","OBJECT_TYPE":"PAYLOAD","MEAN_ANOMALY":"291.2958","INCLINATION":"53.0537","REF_FRAME":"TEME","SITE":"AFETR","OBJECT_NAME":"STARLINK-2365","GP_ID":"199780052","EPOCH":"2022-03-26T20:20:16.679328","MEAN_MOTION_DDOT":"0.0000000000000","NORAD_CAT_ID":"47905","REV_AT_EPOCH":"5882","DECAY_DATE":null,"PERIOD":"95.592","MEAN_MOTION_DOT":"0.00001323","RA_OF_ASC_NODE":"263.2867","TLE_LINE1":"1 47905U 21021AX  22085.84741527  .00001323  00000-0  10768-3 0  9990","ARG_OF_PERICENTER":"68.8186","CENTER_NAME":"EARTH","RCS_SIZE":"LARGE","ECCENTRICITY":"0.00014510","MEAN_ELEMENT_THEORY":"SGP4","ELEMENT_SET_NO":"999","MEAN_MOTION":"15.06400971"},{"MEAN_ELEMENT_THEORY":"SGP4","ECCENTRICITY":"0.00072020","ELEMENT_SET_NO":"999","MEAN_MOTION":"15.76735129","SITE":"AFETR","REF_FRAME":"TEME","INCLINATION":"53.0422","MEAN_MOTION_DDOT":"0.0000000000000","GP_ID":"199778800","EPOCH":"2022-03-26T21:02:36.194784","OBJECT_NAME":"STARLINK-2366","RA_OF_ASC_NODE":"145.8008","PERIOD":"91.328","MEAN_MOTION_DOT":"0.00010581","DECAY_DATE":null,"REV_AT_EPOCH":"6046","NORAD_CAT_ID":"47906","RCS_SIZE":"LARGE","CENTER_NAME":"EARTH","ARG_OF_PERICENTER":"297.0703","TLE_LINE1":"1 47906U 21021AY  22085.87680781  .00010581  00000-0  68493-4 0  9993","FILE":"3375650","BSTAR":"0.00006849300000","EPHEMERIS_TYPE":"0","SEMIMAJOR_AXIS":"6717.835","MEAN_ANOMALY":"62.9581","OBJECT_TYPE":"PAYLOAD","APOAPSIS":"344.538","PERIAPSIS":"334.862","TLE_LINE2":"2 47906  53.0422 145.8008 0007202 297.0703  62.9581 15.76735129 60462","OBJECT_ID":"2021-021AY","LAUNCH_DATE":"2021-03-14","TIME_SYSTEM":"UTC","CLASSIFICATION_TYPE":"U","COUNTRY_CODE":"US"},{"SEMIMAJOR_AXIS":"6925.389","EPHEMERIS_TYPE":"0","FILE":"3375650","BSTAR":"0.00007667600000","APOAPSIS":"548.253","PERIAPSIS":"546.254","OBJECT_TYPE":"PAYLOAD","MEAN_ANOMALY":"296.9073","LAUNCH_DATE":"2021-03-14","OBJECT_ID":"2021-021AZ","TLE_LINE2":"2 47907  53.0546 283.2420 0001443  63.2064 296.9073 15.06386878 58399","COUNTRY_CODE":"US","CLASSIFICATION_TYPE":"U","TIME_SYSTEM":"UTC","ELEMENT_SET_NO":"999","MEAN_ELEMENT_THEORY":"SGP4","ECCENTRICITY":"0.00014430","MEAN_MOTION":"15.06386878","OBJECT_NAME":"STARLINK-2367","EPOCH":"2022-03-26T20:33:33.693408","GP_ID":"199779551","MEAN_MOTION_DDOT":"0.0000000000000","INCLINATION":"53.0546","SITE":"AFETR","REF_FRAME":"TEME","TLE_LINE1":"1 47907U 21021AZ  22085.85663997  .00000860  00000-0  76676-4 0  9993","ARG_OF_PERICENTER":"63.2064","CENTER_NAME":"EARTH","RCS_SIZE":"LARGE","NORAD_CAT_ID":"47907","REV_AT_EPOCH":"5839","DECAY_DATE":null,"PERIOD":"95.593","MEAN_MOTION_DOT":"0.00000860","RA_OF_ASC_NODE":"283.2420"},{"MEAN_ANOMALY":"279.6157","OBJECT_TYPE":"PAYLOAD","PERIAPSIS":"546.012","APOAPSIS":"548.440","BSTAR":"-0.00004420000000","FILE":"3375650","EPHEMERIS_TYPE":"0","SEMIMAJOR_AXIS":"6925.361","TIME_SYSTEM":"UTC","CLASSIFICATION_TYPE":"U","COUNTRY_CODE":"US","TLE_LINE2":"2 47908  53.0543 283.2163 0001753  80.5030 279.6157 15.06395794 58422","LAUNCH_DATE":"2021-03-14","OBJECT_ID":"2021-021BA","MEAN_MOTION":"15.06395794","ECCENTRICITY":"0.00017530","MEAN_ELEMENT_THEORY":"SGP4","ELEMENT_SET_NO":"999","PERIOD":"95.592","MEAN_MOTION_DOT":"-0.00000940","RA_OF_ASC_NODE":"283.2163","DECAY_DATE":null,"REV_AT_EPOCH":"5842","NORAD_CAT_ID":"47908","RCS_SIZE":"LARGE","CENTER_NAME":"EARTH","ARG_OF_PERICENTER":"80.5030","TLE_LINE1":"1 47908U 21021BA  22085.86401637 -.00000940  00000-0 -44200-4 0  9995","SITE":"AFETR","REF_FRAME":"TEME","INCLINATION":"53.0543","MEAN_MOTION_DDOT":"0.0000000000000","EPOCH":"2022-03-26T20:44:11.014368","GP_ID":"199779802","OBJECT_NAME":"STARLINK-2368"},{"REV_AT_EPOCH":"5872","DECAY_DATE":null,"PERIOD":"95.592","MEAN_MOTION_DOT":"0.00001367","RA_OF_ASC_NODE":"273.4367","NORAD_CAT_ID":"47909","CENTER_NAME":"EARTH","RCS_SIZE":"LARGE","TLE_LINE1":"1 47909U 21021BB  22085.81332481  .00001367  00000-0  11068-3 0  9998","ARG_OF_PERICENTER":"58.3399","INCLINATION":"53.0546","REF_FRAME":"TEME","SITE":"AFETR","MEAN_MOTION_DDOT":"0.0000000000000","OBJECT_NAME":"STARLINK-2369","EPOCH":"2022-03-26T19:31:11.263584","GP_ID":"199780553","MEAN_MOTION":"15.06400412","ECCENTRICITY":"0.00016570","MEAN_ELEMENT_THEORY":"SGP4","ELEMENT_SET_NO":"999","TIME_SYSTEM":"UTC","CLASSIFICATION_TYPE":"U","COUNTRY_CODE":"US","LAUNCH_DATE":"2021-03-14","OBJECT_ID":"2021-021BB","TLE_LINE2":"2 47909  53.0546 273.4367 0001657  58.3399 301.7752 15.06400412 58722","MEAN_ANOMALY":"301.7752","APOAPSIS":"548.360","PERIAPSIS":"546.065","OBJECT_TYPE":"PAYLOAD","BSTAR":"0.00011068000000","FILE":"3375650","SEMIMAJOR_AXIS":"6925.347","EPHEMERIS_TYPE":"0"},{"ELEMENT_SET_NO":"999","MEAN_ELEMENT_THEORY":"SGP4","ECCENTRICITY":"0.00014030","MEAN_MOTION":"15.06408243","MEAN_MOTION_DDOT":"0.0000000000000","OBJECT_NAME":"STARLINK-2370","EPOCH":"2022-03-26T20:22:54.494112","GP_ID":"199779301","INCLINATION":"53.0543","REF_FRAME":"TEME","SITE":"AFETR","CENTER_NAME":"EARTH","RCS_SIZE":"LARGE","TLE_LINE1":"1 47910U 21021BC  22085.84924183  .00005577  00000-0  39290-3 0  9993","ARG_OF_PERICENTER":"69.9941","REV_AT_EPOCH":"5858","DECAY_DATE":null,"PERIOD":"95.592","RA_OF_ASC_NODE":"273.2669","MEAN_MOTION_DOT":"0.00005577","NORAD_CAT_ID":"47910","SEMIMAJOR_AXIS":"6925.323","EPHEMERIS_TYPE":"0","FILE":"3375650","BSTAR":"0.00039290000000","MEAN_ANOMALY":"290.1199","PERIAPSIS":"546.217","APOAPSIS":"548.160","OBJECT_TYPE":"PAYLOAD","OBJECT_ID":"2021-021BC","LAUNCH_DATE":"2021-03-14","TLE_LINE2":"2 47910  53.0543 273.2669 0001403  69.9941 290.1199 15.06408243 58584","COUNTRY_CODE":"US","TIME_SYSTEM":"UTC","CLASSIFICATION_TYPE":"U"}];
